{
  "type": "Feature",
  "properties": {
    "iata": "DAY"
  },
  "geometry": {
    "type": "Polygon",
    "coordinates": [
      [
        [
          -85.30158887299996,
          39.78758660200003
        ],
        [
          -85.29811485099998,
          39.52548355400006
        ],
        [
          -85.03609177299995,
          39.52622056600006
        ],
        [
          -85.02282276899996,
          39.52438956700007
        ],
        [
          -84.81535970699997,
          39.52195857600003
        ],
        [
          -84.81504090199996,
          39.56770291200007
        ],
        [
          -84.47893161099995,
          39.56879760100003
        ],
        [
          -84.47921761299995,
          39.59103160500007
        ],
        [
          -84.36523657899994,
          39.58950061000007
        ],
        [
          -84.28534455499994,
          39.58916561400008
        ],
        [
          -84.11419950299995,
          39.57799062000004
        ],
        [
          -83.97700946099997,
          39.56917662500007
        ],
        [
          -83.67020036799994,
          39.55026163500003
        ],
        [
          -83.57629033999996,
          39.54455463900007
        ],
        [
          -83.59088233099999,
          39.37874360700005
        ],
        [
          -83.37271826599994,
          39.377423616000044
        ],
        [
          -83.26674124499993,
          39.51625664800008
        ],
        [
          -83.25243925399997,
          39.69544568200007
        ],
        [
          -83.65333437599998,
          39.71688366800004
        ],
        [
          -83.64717337899998,
          39.77303667900003
        ],
        [
          -83.58804536099996,
          39.768785680000065
        ],
        [
          -83.56488535999995,
          39.84823269700007
        ],
        [
          -83.51180135599998,
          40.00391172800005
        ],
        [
          -83.51615935799998,
          40.01019572900003
        ],
        [
          -83.50371836199997,
          40.11147574900008
        ],
        [
          -83.49450236899997,
          40.22547477000006
        ],
        [
          -83.55134238599999,
          40.22937776800006
        ],
        [
          -83.78535845799996,
          40.24522076000005
        ],
        [
          -83.78420045899998,
          40.26005376300003
        ],
        [
          -84.01476752899998,
          40.27346675500007
        ],
        [
          -84.01033453099996,
          40.31718776300005
        ],
        [
          -84.00370452899995,
          40.312934762000054
        ],
        [
          -84.00484153599996,
          40.39039177700005
        ],
        [
          -84.00198053499997,
          40.39363777700004
        ],
        [
          -84.00237654299997,
          40.48312279400005
        ],
        [
          -84.33914164399994,
          40.48108377700004
        ],
        [
          -84.33877263499994,
          40.378749758000026
        ],
        [
          -84.43402266399994,
          40.37825375400007
        ],
        [
          -84.43439166199994,
          40.35454174900008
        ],
        [
          -84.43463566199995,
          40.35426674900003
        ],
        [
          -84.80412335999995,
          40.35276466900007
        ],
        [
          -84.80226978999997,
          40.57222277100004
        ],
        [
          -85.06848386899998,
          40.56824775700005
        ],
        [
          -85.20115090899998,
          40.56724975000003
        ],
        [
          -85.20081390099995,
          40.480704735000074
        ],
        [
          -85.20651290299998,
          40.479380734000074
        ],
        [
          -85.20683589399994,
          40.37918971600004
        ],
        [
          -85.21990589799998,
          40.37904171500003
        ],
        [
          -85.21876289199997,
          40.306713702000025
        ],
        [
          -85.21439087099998,
          40.076896660000045
        ],
        [
          -85.21350086499996,
          40.004387647000044
        ],
        [
          -85.20147786099994,
          40.00452864700003
        ],
        [
          -85.20094984999997,
          39.873806623000064
        ],
        [
          -85.22073285599998,
          39.87358362200007
        ],
        [
          -85.22112284899998,
          39.78845660600007
        ],
        [
          -85.30158887299996,
          39.78758660200003
        ]
      ]
    ]
  }
}
