{
  "type": "Feature",
  "properties": {
    "iata": "FWA"
  },
  "geometry": {
    "type": "Polygon",
    "coordinates": [
      [
        [
          -85.946436,
          40.999195
        ],
        [
          -85.945393,
          40.963556
        ],
        [
          -85.944987,
          40.951955
        ],
        [
          -85.944081,
          40.920882
        ],
        [
          -85.944049,
          40.91281
        ],
        [
          -85.943628,
          40.890183
        ],
        [
          -85.942826,
          40.854035
        ],
        [
          -85.941967,
          40.808927
        ],
        [
          -85.941535,
          40.794406
        ],
        [
          -85.941302,
          40.78187
        ],
        [
          -85.941476,
          40.769562
        ],
        [
          -85.941024,
          40.748867
        ],
        [
          -85.941094,
          40.737269
        ],
        [
          -85.940375,
          40.6946
        ],
        [
          -85.940066,
          40.686384
        ],
        [
          -85.939525,
          40.650991
        ],
        [
          -85.901427,
          40.65125
        ],
        [
          -85.893207,
          40.651375
        ],
        [
          -85.874955,
          40.651503
        ],
        [
          -85.864791,
          40.651693
        ],
        [
          -85.86214,
          40.651723
        ],
        [
          -85.855661,
          40.651337
        ],
        [
          -85.838927,
          40.651718
        ],
        [
          -85.836318,
          40.651925
        ],
        [
          -85.795826,
          40.652147
        ],
        [
          -85.776321,
          40.6524
        ],
        [
          -85.771891,
          40.652294
        ],
        [
          -85.760169,
          40.652377
        ],
        [
          -85.758173,
          40.652016
        ],
        [
          -85.753922,
          40.652382
        ],
        [
          -85.737259,
          40.652568
        ],
        [
          -85.726531,
          40.652569
        ],
        [
          -85.714161,
          40.652696
        ],
        [
          -85.701272,
          40.652652
        ],
        [
          -85.668961,
          40.652877
        ],
        [
          -85.638587,
          40.653129
        ],
        [
          -85.59236,
          40.653308
        ],
        [
          -85.571832,
          40.653279
        ],
        [
          -85.562294,
          40.653193
        ],
        [
          -85.54454,
          40.653332
        ],
        [
          -85.525488,
          40.653292
        ],
        [
          -85.515958,
          40.653365
        ],
        [
          -85.504757,
          40.653322
        ],
        [
          -85.498373,
          40.653423
        ],
        [
          -85.46355,
          40.653667
        ],
        [
          -85.448825,
          40.653607
        ],
        [
          -85.448993,
          40.651271
        ],
        [
          -85.448127,
          40.624733
        ],
        [
          -85.448027,
          40.615279
        ],
        [
          -85.447453,
          40.596196
        ],
        [
          -85.447407,
          40.589741
        ],
        [
          -85.447014,
          40.566929
        ],
        [
          -85.410222,
          40.566832
        ],
        [
          -85.390539,
          40.566898
        ],
        [
          -85.371511,
          40.567107
        ],
        [
          -85.333667,
          40.567327
        ],
        [
          -85.316262,
          40.567329
        ],
        [
          -85.283757,
          40.567252
        ],
        [
          -85.259125,
          40.567146
        ],
        [
          -85.240081,
          40.567231
        ],
        [
          -85.228116,
          40.567186
        ],
        [
          -85.220999,
          40.567251
        ],
        [
          -85.201146,
          40.567242
        ],
        [
          -85.183391,
          40.567255
        ],
        [
          -85.144768,
          40.567484
        ],
        [
          -85.107429,
          40.567816
        ],
        [
          -85.087652,
          40.56811
        ],
        [
          -85.085414,
          40.568009
        ],
        [
          -85.068479,
          40.56824
        ],
        [
          -85.006945,
          40.56909
        ],
        [
          -84.999912,
          40.569498
        ],
        [
          -84.990584,
          40.569617
        ],
        [
          -84.971178,
          40.570089
        ],
        [
          -84.955879,
          40.570346
        ],
        [
          -84.92263,
          40.570747
        ],
        [
          -84.917496,
          40.570727
        ],
        [
          -84.905582,
          40.571024
        ],
        [
          -84.876541,
          40.571393
        ],
        [
          -84.873026,
          40.571285
        ],
        [
          -84.866124,
          40.571518
        ],
        [
          -84.849159,
          40.57162
        ],
        [
          -84.838632,
          40.571819
        ],
        [
          -84.812937,
          40.57217
        ],
        [
          -84.802477,
          40.572213
        ],
        [
          -84.802321,
          40.601605
        ],
        [
          -84.802253,
          40.63035
        ],
        [
          -84.802379,
          40.676773
        ],
        [
          -84.802145,
          40.680758
        ],
        [
          -84.802312,
          40.689209
        ],
        [
          -84.802093,
          40.691501
        ],
        [
          -84.802299,
          40.702527
        ],
        [
          -84.802257,
          40.715149
        ],
        [
          -84.802297,
          40.740396
        ],
        [
          -84.802183,
          40.750253
        ],
        [
          -84.802387,
          40.75266
        ],
        [
          -84.802489,
          40.765344
        ],
        [
          -84.802343,
          40.773046
        ],
        [
          -84.802226,
          40.794176
        ],
        [
          -84.802411,
          40.851779
        ],
        [
          -84.802551,
          40.873326
        ],
        [
          -84.802702,
          40.887363
        ],
        [
          -84.802922,
          40.922568
        ],
        [
          -84.803148,
          40.958992
        ],
        [
          -84.803245,
          40.987092
        ],
        [
          -84.803306,
          41.018042
        ],
        [
          -84.803179,
          41.030309
        ],
        [
          -84.80336,
          41.079253
        ],
        [
          -84.803434,
          41.112932
        ],
        [
          -84.803504,
          41.121331
        ],
        [
          -84.803476,
          41.14584
        ],
        [
          -84.803525,
          41.163951
        ],
        [
          -84.803384,
          41.165017
        ],
        [
          -84.80355,
          41.172075
        ],
        [
          -84.803429,
          41.17551
        ],
        [
          -84.803552,
          41.216367
        ],
        [
          -84.803495,
          41.227312
        ],
        [
          -84.803592,
          41.270933
        ],
        [
          -84.804017,
          41.333872
        ],
        [
          -84.803986,
          41.368114
        ],
        [
          -84.803869,
          41.373532
        ],
        [
          -84.803996,
          41.386586
        ],
        [
          -84.803977,
          41.404609
        ],
        [
          -84.803888,
          41.408624
        ],
        [
          -84.803961,
          41.42267
        ],
        [
          -84.804063,
          41.426034
        ],
        [
          -84.804036,
          41.443363
        ],
        [
          -84.80412,
          41.448255
        ],
        [
          -84.804262,
          41.480936
        ],
        [
          -84.804484,
          41.500348
        ],
        [
          -84.804518,
          41.512909
        ],
        [
          -84.804687,
          41.530134
        ],
        [
          -84.804829,
          41.54708
        ],
        [
          -84.805114,
          41.56208
        ],
        [
          -84.8054,
          41.587414
        ],
        [
          -84.805483,
          41.590776
        ],
        [
          -84.805664,
          41.611579
        ],
        [
          -84.805794,
          41.616439
        ],
        [
          -84.805684,
          41.628893
        ],
        [
          -84.805961,
          41.631482
        ],
        [
          -84.805794,
          41.643855
        ],
        [
          -84.80587,
          41.660172
        ],
        [
          -84.806209,
          41.674584
        ],
        [
          -84.805979,
          41.674895
        ],
        [
          -84.805999,
          41.697381
        ],
        [
          -84.805898,
          41.70751
        ],
        [
          -84.805991,
          41.712034
        ],
        [
          -84.805921,
          41.732926
        ],
        [
          -84.806043,
          41.737528
        ],
        [
          -84.805821,
          41.752176
        ],
        [
          -84.805885,
          41.760171
        ],
        [
          -84.810028,
          41.760017
        ],
        [
          -84.854445,
          41.759954
        ],
        [
          -84.899443,
          41.759813
        ],
        [
          -84.924905,
          41.759708
        ],
        [
          -84.940206,
          41.759723
        ],
        [
          -84.980969,
          41.759491
        ],
        [
          -85.01675,
          41.759782
        ],
        [
          -85.019693,
          41.759731
        ],
        [
          -85.058783,
          41.759609
        ],
        [
          -85.093967,
          41.759676
        ],
        [
          -85.156179,
          41.759538
        ],
        [
          -85.172234,
          41.759633
        ],
        [
          -85.196774,
          41.759644
        ],
        [
          -85.202344,
          41.759634
        ],
        [
          -85.24998,
          41.759799
        ],
        [
          -85.271157,
          41.759845
        ],
        [
          -85.286618,
          41.759793
        ],
        [
          -85.308274,
          41.759947
        ],
        [
          -85.318233,
          41.759888
        ],
        [
          -85.33799,
          41.75992
        ],
        [
          -85.350123,
          41.759861
        ],
        [
          -85.369691,
          41.759906
        ],
        [
          -85.389059,
          41.759698
        ],
        [
          -85.408749,
          41.759849
        ],
        [
          -85.418433,
          41.759685
        ],
        [
          -85.447756,
          41.759591
        ],
        [
          -85.474743,
          41.759456
        ],
        [
          -85.477156,
          41.759235
        ],
        [
          -85.492948,
          41.75928
        ],
        [
          -85.499916,
          41.759388
        ],
        [
          -85.51794,
          41.759317
        ],
        [
          -85.54536,
          41.75944
        ],
        [
          -85.563756,
          41.759242
        ],
        [
          -85.582923,
          41.759251
        ],
        [
          -85.622386,
          41.759078
        ],
        [
          -85.64629,
          41.759115
        ],
        [
          -85.65975,
          41.759068
        ],
        [
          -85.659809,
          41.75488
        ],
        [
          -85.659256,
          41.731187
        ],
        [
          -85.659081,
          41.718138
        ],
        [
          -85.658611,
          41.696754
        ],
        [
          -85.658187,
          41.682658
        ],
        [
          -85.657889,
          41.67653
        ],
        [
          -85.658036,
          41.675677
        ],
        [
          -85.657105,
          41.632243
        ],
        [
          -85.656691,
          41.609557
        ],
        [
          -85.655998,
          41.58548
        ],
        [
          -85.655437,
          41.561333
        ],
        [
          -85.654747,
          41.523347
        ],
        [
          -85.654274,
          41.515695
        ],
        [
          -85.654103,
          41.509583
        ],
        [
          -85.65391,
          41.487853
        ],
        [
          -85.653563,
          41.480701
        ],
        [
          -85.653643,
          41.466092
        ],
        [
          -85.653491,
          41.44603
        ],
        [
          -85.653507,
          41.436856
        ],
        [
          -85.653634,
          41.420958
        ],
        [
          -85.653501,
          41.404521
        ],
        [
          -85.653228,
          41.351228
        ],
        [
          -85.653084,
          41.338641
        ],
        [
          -85.652363,
          41.315696
        ],
        [
          -85.651928,
          41.294776
        ],
        [
          -85.651619,
          41.281023
        ],
        [
          -85.651193,
          41.265647
        ],
        [
          -85.651242,
          41.248321
        ],
        [
          -85.651419,
          41.235692
        ],
        [
          -85.651675,
          41.227843
        ],
        [
          -85.651696,
          41.220018
        ],
        [
          -85.651961,
          41.212184
        ],
        [
          -85.652715,
          41.178489
        ],
        [
          -85.671731,
          41.178572
        ],
        [
          -85.686574,
          41.178376
        ],
        [
          -85.686511,
          41.169751
        ],
        [
          -85.686032,
          41.124785
        ],
        [
          -85.686033,
          41.11793
        ],
        [
          -85.685832,
          41.103512
        ],
        [
          -85.685356,
          41.082412
        ],
        [
          -85.684765,
          41.065401
        ],
        [
          -85.684276,
          41.054479
        ],
        [
          -85.684181,
          41.046716
        ],
        [
          -85.700198,
          41.045685
        ],
        [
          -85.707063,
          41.045503
        ],
        [
          -85.721948,
          41.04535
        ],
        [
          -85.732596,
          41.045143
        ],
        [
          -85.735739,
          41.044937
        ],
        [
          -85.749966,
          41.044816
        ],
        [
          -85.761217,
          41.044513
        ],
        [
          -85.779916,
          41.044197
        ],
        [
          -85.795814,
          41.043588
        ],
        [
          -85.809626,
          41.04369
        ],
        [
          -85.828135,
          41.043566
        ],
        [
          -85.865226,
          41.043175
        ],
        [
          -85.872251,
          41.04305
        ],
        [
          -85.883222,
          41.043118
        ],
        [
          -85.910452,
          41.042903
        ],
        [
          -85.927265,
          41.042574
        ],
        [
          -85.935347,
          41.042807
        ],
        [
          -85.945561,
          41.042876
        ],
        [
          -85.945636,
          41.013779
        ],
        [
          -85.94538,
          41.004685
        ],
        [
          -85.945402,
          40.999256
        ],
        [
          -85.946436,
          40.999195
        ]
      ]
    ]
  }
}