{
  "type": "Feature",
  "properties": {
    "iata": "IND"
  },
  "geometry": {
    "type": "Polygon",
    "coordinates": [
      [
        [
          -87.658745,
          39.135997
        ],
        [
          -87.657045,
          39.133721
        ],
        [
          -87.655239,
          39.132283
        ],
        [
          -87.6515,
          39.130817
        ],
        [
          -87.647067,
          39.130159
        ],
        [
          -87.644804,
          39.129523
        ],
        [
          -87.643145,
          39.128562
        ],
        [
          -87.642335,
          39.126891
        ],
        [
          -87.64217,
          39.123212
        ],
        [
          -87.64089,
          39.122774
        ],
        [
          -87.638187,
          39.123469
        ],
        [
          -87.6351,
          39.122298
        ],
        [
          -87.634971,
          39.120089
        ],
        [
          -87.635903,
          39.118329
        ],
        [
          -87.637494,
          39.116943
        ],
        [
          -87.640899,
          39.115283
        ],
        [
          -87.640761,
          39.114372
        ],
        [
          -87.644317,
          39.115205
        ],
        [
          -87.647644,
          39.115637
        ],
        [
          -87.651022,
          39.116439
        ],
        [
          -87.653278,
          39.114403
        ],
        [
          -87.654859,
          39.112394
        ],
        [
          -87.654636,
          39.109111
        ],
        [
          -87.652796,
          39.106839
        ],
        [
          -87.649166,
          39.104803
        ],
        [
          -87.64707,
          39.104268
        ],
        [
          -87.644609,
          39.104432
        ],
        [
          -87.642352,
          39.10516
        ],
        [
          -87.638585,
          39.105894
        ],
        [
          -87.632655,
          39.104908
        ],
        [
          -87.625024,
          39.104225
        ],
        [
          -87.623509,
          39.104476
        ],
        [
          -87.618385,
          39.104284
        ],
        [
          -87.615684,
          39.103316
        ],
        [
          -87.613996,
          39.100995
        ],
        [
          -87.614309,
          39.097778
        ],
        [
          -87.615465,
          39.095771
        ],
        [
          -87.617611,
          39.094287
        ],
        [
          -87.620387,
          39.091522
        ],
        [
          -87.621142,
          39.088966
        ],
        [
          -87.620258,
          39.086572
        ],
        [
          -87.615964,
          39.082566
        ],
        [
          -87.611863,
          39.081252
        ],
        [
          -87.607121,
          39.081179
        ],
        [
          -87.602905,
          39.081558
        ],
        [
          -87.601101,
          39.081405
        ],
        [
          -87.596373,
          39.079639
        ],
        [
          -87.594592,
          39.077986
        ],
        [
          -87.592442,
          39.074253
        ],
        [
          -87.591515,
          39.073181
        ],
        [
          -87.585687,
          39.069729
        ],
        [
          -87.583546,
          39.067947
        ],
        [
          -87.5801,
          39.063891
        ],
        [
          -87.578702,
          39.061698
        ],
        [
          -87.576984,
          39.060182
        ],
        [
          -87.572588,
          39.057286
        ],
        [
          -87.571926,
          39.052739
        ],
        [
          -87.57229,
          39.050587
        ],
        [
          -87.574728,
          39.046929
        ],
        [
          -87.578824,
          39.043528
        ],
        [
          -87.580207,
          39.04194
        ],
        [
          -87.580252,
          39.039377
        ],
        [
          -87.579512,
          39.038401
        ],
        [
          -87.575027,
          39.034062
        ],
        [
          -87.570686,
          39.024967
        ],
        [
          -87.569579,
          39.021863
        ],
        [
          -87.569696,
          39.019413
        ],
        [
          -87.57187,
          39.012545
        ],
        [
          -87.573761,
          39.008684
        ],
        [
          -87.576836,
          39.004791
        ],
        [
          -87.578569,
          39.00305
        ],
        [
          -87.579117,
          39.001607
        ],
        [
          -87.578654,
          38.999502
        ],
        [
          -87.577627,
          38.997914
        ],
        [
          -87.575422,
          38.996478
        ],
        [
          -87.569465,
          38.99407
        ],
        [
          -87.567085,
          38.993544
        ],
        [
          -87.564023,
          38.994405
        ],
        [
          -87.561976,
          38.994198
        ],
        [
          -87.560427,
          38.992425
        ],
        [
          -87.562043,
          38.989469
        ],
        [
          -87.565193,
          38.988795
        ],
        [
          -87.568371,
          38.989607
        ],
        [
          -87.57254,
          38.991248
        ],
        [
          -87.574535,
          38.991518
        ],
        [
          -87.576984,
          38.99127
        ],
        [
          -87.578019,
          38.990647
        ],
        [
          -87.578319,
          38.988786
        ],
        [
          -87.576531,
          38.986711
        ],
        [
          -87.573466,
          38.985441
        ],
        [
          -87.564366,
          38.983022
        ],
        [
          -87.557985,
          38.980687
        ],
        [
          -87.548034,
          38.978504
        ],
        [
          -87.542493,
          38.975599
        ],
        [
          -87.537806,
          38.974555
        ],
        [
          -87.532449,
          38.973058
        ],
        [
          -87.529496,
          38.971925
        ],
        [
          -87.527002,
          38.96883
        ],
        [
          -87.525486,
          38.964877
        ],
        [
          -87.524335,
          38.962964
        ],
        [
          -87.5218,
          38.960715
        ],
        [
          -87.517893,
          38.958116
        ],
        [
          -87.513346,
          38.956
        ],
        [
          -87.512187,
          38.954417
        ],
        [
          -87.512328,
          38.951941
        ],
        [
          -87.512927,
          38.950133
        ],
        [
          -87.514311,
          38.947837
        ],
        [
          -87.516343,
          38.945558
        ],
        [
          -87.519318,
          38.943067
        ],
        [
          -87.521,
          38.942107
        ],
        [
          -87.521851,
          38.940069
        ],
        [
          -87.52124,
          38.93889
        ],
        [
          -87.517355,
          38.934943
        ],
        [
          -87.516628,
          38.932995
        ],
        [
          -87.517046,
          38.931467
        ],
        [
          -87.518789,
          38.927844
        ],
        [
          -87.518469,
          38.924798
        ],
        [
          -87.519119,
          38.922603
        ],
        [
          -87.520634,
          38.921665
        ],
        [
          -87.522475,
          38.921345
        ],
        [
          -87.524837,
          38.921661
        ],
        [
          -87.526771,
          38.920833
        ],
        [
          -87.527715,
          38.919232
        ],
        [
          -87.527481,
          38.917332
        ],
        [
          -87.526307,
          38.915111
        ],
        [
          -87.526046,
          38.913073
        ],
        [
          -87.527887,
          38.909201
        ],
        [
          -87.52791,
          38.908209
        ],
        [
          -87.526625,
          38.906382
        ],
        [
          -87.524314,
          38.905194
        ],
        [
          -87.522731,
          38.905099
        ],
        [
          -87.518953,
          38.905859
        ],
        [
          -87.517732,
          38.905672
        ],
        [
          -87.516728,
          38.904123
        ],
        [
          -87.518008,
          38.902705
        ],
        [
          -87.522939,
          38.90239
        ],
        [
          -87.500021,
          38.902305
        ],
        [
          -87.496158,
          38.902356
        ],
        [
          -87.467216,
          38.902291
        ],
        [
          -87.446536,
          38.90231
        ],
        [
          -87.427684,
          38.902043
        ],
        [
          -87.406251,
          38.901879
        ],
        [
          -87.375017,
          38.90175
        ],
        [
          -87.373033,
          38.901975
        ],
        [
          -87.354295,
          38.901639
        ],
        [
          -87.345981,
          38.901753
        ],
        [
          -87.332162,
          38.901812
        ],
        [
          -87.281986,
          38.901643
        ],
        [
          -87.259256,
          38.901649
        ],
        [
          -87.241067,
          38.901591
        ],
        [
          -87.241027,
          38.907874
        ],
        [
          -87.198696,
          38.907713
        ],
        [
          -87.18695,
          38.907711
        ],
        [
          -87.153404,
          38.907501
        ],
        [
          -87.129882,
          38.907315
        ],
        [
          -87.129771,
          38.90468
        ],
        [
          -87.114961,
          38.904258
        ],
        [
          -87.098771,
          38.903974
        ],
        [
          -87.081304,
          38.903605
        ],
        [
          -87.051023,
          38.902822
        ],
        [
          -87.03542,
          38.90246
        ],
        [
          -87.008995,
          38.902667
        ],
        [
          -86.993763,
          38.902733
        ],
        [
          -86.978427,
          38.902988
        ],
        [
          -86.959608,
          38.903217
        ],
        [
          -86.941263,
          38.903598
        ],
        [
          -86.934548,
          38.903674
        ],
        [
          -86.904252,
          38.904204
        ],
        [
          -86.875004,
          38.904212
        ],
        [
          -86.863625,
          38.904288
        ],
        [
          -86.757416,
          38.904419
        ],
        [
          -86.682853,
          38.904697
        ],
        [
          -86.683055,
          38.876292
        ],
        [
          -86.683232,
          38.861237
        ],
        [
          -86.68299,
          38.857682
        ],
        [
          -86.683247,
          38.853232
        ],
        [
          -86.683152,
          38.835389
        ],
        [
          -86.683225,
          38.829603
        ],
        [
          -86.683163,
          38.818015
        ],
        [
          -86.683191,
          38.804437
        ],
        [
          -86.683051,
          38.800344
        ],
        [
          -86.683308,
          38.784488
        ],
        [
          -86.683498,
          38.76211
        ],
        [
          -86.684058,
          38.761472
        ],
        [
          -86.683403,
          38.756176
        ],
        [
          -86.683415,
          38.75005
        ],
        [
          -86.683207,
          38.740733
        ],
        [
          -86.683371,
          38.722987
        ],
        [
          -86.683264,
          38.717301
        ],
        [
          -86.683102,
          38.686561
        ],
        [
          -86.683058,
          38.64332
        ],
        [
          -86.682853,
          38.64314
        ],
        [
          -86.682797,
          38.625052
        ],
        [
          -86.682655,
          38.622084
        ],
        [
          -86.682482,
          38.592843
        ],
        [
          -86.682468,
          38.567019
        ],
        [
          -86.682353,
          38.538518
        ],
        [
          -86.682359,
          38.526378
        ],
        [
          -86.682207,
          38.49711
        ],
        [
          -86.681943,
          38.46359
        ],
        [
          -86.681864,
          38.448756
        ],
        [
          -86.681424,
          38.394767
        ],
        [
          -86.677081,
          38.394834
        ],
        [
          -86.64226,
          38.39501
        ],
        [
          -86.624988,
          38.395158
        ],
        [
          -86.614937,
          38.395459
        ],
        [
          -86.575726,
          38.396014
        ],
        [
          -86.552359,
          38.396139
        ],
        [
          -86.546001,
          38.396237
        ],
        [
          -86.51138,
          38.396435
        ],
        [
          -86.499985,
          38.396567
        ],
        [
          -86.487165,
          38.396419
        ],
        [
          -86.45719,
          38.396415
        ],
        [
          -86.451701,
          38.396461
        ],
        [
          -86.427081,
          38.396096
        ],
        [
          -86.4078,
          38.395875
        ],
        [
          -86.392458,
          38.395585
        ],
        [
          -86.38262,
          38.395585
        ],
        [
          -86.374982,
          38.394815
        ],
        [
          -86.371214,
          38.394969
        ],
        [
          -86.36551,
          38.394605
        ],
        [
          -86.345058,
          38.394575
        ],
        [
          -86.339179,
          38.3943
        ],
        [
          -86.323944,
          38.394397
        ],
        [
          -86.308868,
          38.394069
        ],
        [
          -86.308674,
          38.422875
        ],
        [
          -86.308359,
          38.470382
        ],
        [
          -86.308787,
          38.470372
        ],
        [
          -86.308614,
          38.484824
        ],
        [
          -86.308255,
          38.506445
        ],
        [
          -86.307909,
          38.52112
        ],
        [
          -86.308134,
          38.522532
        ],
        [
          -86.308034,
          38.530532
        ],
        [
          -86.307982,
          38.549948
        ],
        [
          -86.30824,
          38.557209
        ],
        [
          -86.308204,
          38.564998
        ],
        [
          -86.307922,
          38.593437
        ],
        [
          -86.30788,
          38.622541
        ],
        [
          -86.307923,
          38.625135
        ],
        [
          -86.307749,
          38.644462
        ],
        [
          -86.308189,
          38.653631
        ],
        [
          -86.308303,
          38.659332
        ],
        [
          -86.307924,
          38.669569
        ],
        [
          -86.307947,
          38.674499
        ],
        [
          -86.308701,
          38.688101
        ],
        [
          -86.308879,
          38.690773
        ],
        [
          -86.308855,
          38.698676
        ],
        [
          -86.309106,
          38.700747
        ],
        [
          -86.309199,
          38.708832
        ],
        [
          -86.309586,
          38.716276
        ],
        [
          -86.309445,
          38.724235
        ],
        [
          -86.309562,
          38.730674
        ],
        [
          -86.310058,
          38.733131
        ],
        [
          -86.308289,
          38.734144
        ],
        [
          -86.302732,
          38.735903
        ],
        [
          -86.301872,
          38.73562
        ],
        [
          -86.30282,
          38.733318
        ],
        [
          -86.301927,
          38.730425
        ],
        [
          -86.300128,
          38.729601
        ],
        [
          -86.299449,
          38.730087
        ],
        [
          -86.300751,
          38.732211
        ],
        [
          -86.300257,
          38.733673
        ],
        [
          -86.297987,
          38.735177
        ],
        [
          -86.294761,
          38.735687
        ],
        [
          -86.292057,
          38.735097
        ],
        [
          -86.290402,
          38.736323
        ],
        [
          -86.290605,
          38.738625
        ],
        [
          -86.291558,
          38.742541
        ],
        [
          -86.287984,
          38.747829
        ],
        [
          -86.288041,
          38.751399
        ],
        [
          -86.28656,
          38.755087
        ],
        [
          -86.283094,
          38.758843
        ],
        [
          -86.282041,
          38.761124
        ],
        [
          -86.284002,
          38.763275
        ],
        [
          -86.284633,
          38.765084
        ],
        [
          -86.282819,
          38.76631
        ],
        [
          -86.279662,
          38.76307
        ],
        [
          -86.277476,
          38.762985
        ],
        [
          -86.275281,
          38.763795
        ],
        [
          -86.272522,
          38.765537
        ],
        [
          -86.266922,
          38.766144
        ],
        [
          -86.26405,
          38.764948
        ],
        [
          -86.263033,
          38.76544
        ],
        [
          -86.263163,
          38.767575
        ],
        [
          -86.26263,
          38.769729
        ],
        [
          -86.257117,
          38.772006
        ],
        [
          -86.25547,
          38.771879
        ],
        [
          -86.254103,
          38.770118
        ],
        [
          -86.254897,
          38.767846
        ],
        [
          -86.257741,
          38.765042
        ],
        [
          -86.257129,
          38.763498
        ],
        [
          -86.255787,
          38.763011
        ],
        [
          -86.253442,
          38.76352
        ],
        [
          -86.251214,
          38.766714
        ],
        [
          -86.249015,
          38.768023
        ],
        [
          -86.247229,
          38.767846
        ],
        [
          -86.244746,
          38.766116
        ],
        [
          -86.243199,
          38.765605
        ],
        [
          -86.240821,
          38.765912
        ],
        [
          -86.237144,
          38.767797
        ],
        [
          -86.232208,
          38.773194
        ],
        [
          -86.226597,
          38.777949
        ],
        [
          -86.224068,
          38.779147
        ],
        [
          -86.223136,
          38.778943
        ],
        [
          -86.220787,
          38.777165
        ],
        [
          -86.22018,
          38.776009
        ],
        [
          -86.220885,
          38.773158
        ],
        [
          -86.220316,
          38.7717
        ],
        [
          -86.218736,
          38.771134
        ],
        [
          -86.21655,
          38.771372
        ],
        [
          -86.214311,
          38.773816
        ],
        [
          -86.214208,
          38.775349
        ],
        [
          -86.215375,
          38.777799
        ],
        [
          -86.214945,
          38.778741
        ],
        [
          -86.213161,
          38.77938
        ],
        [
          -86.210092,
          38.779446
        ],
        [
          -86.207835,
          38.778272
        ],
        [
          -86.207637,
          38.776338
        ],
        [
          -86.205297,
          38.774033
        ],
        [
          -86.203812,
          38.773715
        ],
        [
          -86.197651,
          38.773769
        ],
        [
          -86.197424,
          38.775414
        ],
        [
          -86.199856,
          38.775995
        ],
        [
          -86.202242,
          38.775946
        ],
        [
          -86.202975,
          38.778025
        ],
        [
          -86.205528,
          38.779903
        ],
        [
          -86.205499,
          38.781814
        ],
        [
          -86.203467,
          38.782571
        ],
        [
          -86.200708,
          38.782557
        ],
        [
          -86.199317,
          38.782142
        ],
        [
          -86.196475,
          38.780063
        ],
        [
          -86.196639,
          38.778296
        ],
        [
          -86.194821,
          38.777093
        ],
        [
          -86.189881,
          38.776626
        ],
        [
          -86.186905,
          38.777494
        ],
        [
          -86.188697,
          38.779444
        ],
        [
          -86.187719,
          38.780925
        ],
        [
          -86.185536,
          38.782917
        ],
        [
          -86.184102,
          38.783588
        ],
        [
          -86.181722,
          38.782401
        ],
        [
          -86.180725,
          38.780941
        ],
        [
          -86.179485,
          38.777475
        ],
        [
          -86.176633,
          38.774857
        ],
        [
          -86.172332,
          38.772844
        ],
        [
          -86.167545,
          38.772617
        ],
        [
          -86.164596,
          38.775086
        ],
        [
          -86.163576,
          38.774832
        ],
        [
          -86.15997,
          38.772576
        ],
        [
          -86.153316,
          38.768778
        ],
        [
          -86.145079,
          38.766929
        ],
        [
          -86.140185,
          38.765435
        ],
        [
          -86.134944,
          38.762425
        ],
        [
          -86.131466,
          38.763794
        ],
        [
          -86.126694,
          38.763757
        ],
        [
          -86.124981,
          38.764106
        ],
        [
          -86.117096,
          38.766851
        ],
        [
          -86.115781,
          38.766975
        ],
        [
          -86.112839,
          38.766207
        ],
        [
          -86.111073,
          38.766324
        ],
        [
          -86.108867,
          38.767128
        ],
        [
          -86.106945,
          38.7671
        ],
        [
          -86.104832,
          38.765765
        ],
        [
          -86.102356,
          38.765755
        ],
        [
          -86.100009,
          38.767325
        ],
        [
          -86.099162,
          38.768925
        ],
        [
          -86.100671,
          38.773738
        ],
        [
          -86.100504,
          38.775844
        ],
        [
          -86.098932,
          38.778478
        ],
        [
          -86.098169,
          38.780465
        ],
        [
          -86.096265,
          38.782438
        ],
        [
          -86.094839,
          38.783167
        ],
        [
          -86.091705,
          38.783399
        ],
        [
          -86.087322,
          38.782053
        ],
        [
          -86.083424,
          38.781351
        ],
        [
          -86.080944,
          38.780509
        ],
        [
          -86.076419,
          38.776596
        ],
        [
          -86.075066,
          38.774727
        ],
        [
          -86.072835,
          38.774497
        ],
        [
          -86.069237,
          38.776949
        ],
        [
          -86.067011,
          38.778099
        ],
        [
          -86.064206,
          38.778645
        ],
        [
          -86.062376,
          38.778334
        ],
        [
          -86.060152,
          38.777087
        ],
        [
          -86.057523,
          38.774462
        ],
        [
          -86.050184,
          38.770829
        ],
        [
          -86.048978,
          38.769653
        ],
        [
          -86.047236,
          38.766676
        ],
        [
          -86.043316,
          38.76245
        ],
        [
          -86.040583,
          38.760888
        ],
        [
          -86.038303,
          38.760888
        ],
        [
          -86.034035,
          38.761733
        ],
        [
          -86.031843,
          38.761321
        ],
        [
          -86.028805,
          38.756834
        ],
        [
          -86.026788,
          38.755735
        ],
        [
          -86.025677,
          38.756993
        ],
        [
          -86.026407,
          38.758687
        ],
        [
          -86.026318,
          38.761342
        ],
        [
          -86.023744,
          38.763996
        ],
        [
          -86.022076,
          38.766926
        ],
        [
          -86.020409,
          38.767566
        ],
        [
          -86.017282,
          38.766512
        ],
        [
          -86.015266,
          38.764588
        ],
        [
          -86.017432,
          38.761087
        ],
        [
          -86.016703,
          38.757974
        ],
        [
          -86.014891,
          38.756989
        ],
        [
          -86.010944,
          38.756713
        ],
        [
          -86.0096,
          38.756964
        ],
        [
          -86.00647,
          38.759961
        ],
        [
          -86.003663,
          38.760784
        ],
        [
          -86.000885,
          38.76005
        ],
        [
          -85.997781,
          38.760899
        ],
        [
          -85.996789,
          38.762547
        ],
        [
          -85.996264,
          38.764996
        ],
        [
          -85.994482,
          38.7666
        ],
        [
          -85.992641,
          38.767401
        ],
        [
          -85.989776,
          38.767311
        ],
        [
          -85.984252,
          38.768115
        ],
        [
          -85.982321,
          38.767131
        ],
        [
          -85.982642,
          38.766216
        ],
        [
          -85.984688,
          38.765482
        ],
        [
          -85.985243,
          38.763857
        ],
        [
          -85.984569,
          38.762392
        ],
        [
          -85.985678,
          38.759417
        ],
        [
          -85.985034,
          38.757632
        ],
        [
          -85.983923,
          38.757495
        ],
        [
          -85.98062,
          38.759052
        ],
        [
          -85.979392,
          38.757863
        ],
        [
          -85.980268,
          38.756191
        ],
        [
          -85.98015,
          38.754887
        ],
        [
          -85.978629,
          38.753171
        ],
        [
          -85.976641,
          38.752393
        ],
        [
          -85.974274,
          38.752852
        ],
        [
          -85.972638,
          38.754157
        ],
        [
          -85.967874,
          38.75512
        ],
        [
          -85.967173,
          38.75615
        ],
        [
          -85.966794,
          38.759652
        ],
        [
          -85.966123,
          38.761185
        ],
        [
          -85.962762,
          38.763635
        ],
        [
          -85.960862,
          38.764185
        ],
        [
          -85.959224,
          38.76224
        ],
        [
          -85.957762,
          38.76137
        ],
        [
          -85.955775,
          38.761165
        ],
        [
          -85.952237,
          38.761417
        ],
        [
          -85.950073,
          38.760547
        ],
        [
          -85.952207,
          38.758808
        ],
        [
          -85.952324,
          38.757297
        ],
        [
          -85.951154,
          38.754757
        ],
        [
          -85.950101,
          38.753842
        ],
        [
          -85.948377,
          38.753636
        ],
        [
          -85.946243,
          38.754186
        ],
        [
          -85.945162,
          38.755857
        ],
        [
          -85.945747,
          38.757137
        ],
        [
          -85.944929,
          38.759289
        ],
        [
          -85.943438,
          38.759998
        ],
        [
          -85.941304,
          38.760273
        ],
        [
          -85.938703,
          38.762425
        ],
        [
          -85.936569,
          38.762837
        ],
        [
          -85.936072,
          38.761921
        ],
        [
          -85.937563,
          38.7608
        ],
        [
          -85.93803,
          38.759449
        ],
        [
          -85.93651,
          38.755834
        ],
        [
          -85.934027,
          38.755102
        ],
        [
          -85.932447,
          38.755811
        ],
        [
          -85.927507,
          38.756062
        ],
        [
          -85.927185,
          38.755101
        ],
        [
          -85.928618,
          38.75343
        ],
        [
          -85.928004,
          38.750661
        ],
        [
          -85.925286,
          38.750615
        ],
        [
          -85.922975,
          38.748271
        ],
        [
          -85.919878,
          38.747172
        ],
        [
          -85.916663,
          38.74566
        ],
        [
          -85.915845,
          38.747423
        ],
        [
          -85.918182,
          38.748842
        ],
        [
          -85.919529,
          38.750551
        ],
        [
          -85.919148,
          38.753223
        ],
        [
          -85.918592,
          38.754185
        ],
        [
          -85.916283,
          38.753978
        ],
        [
          -85.916109,
          38.751872
        ],
        [
          -85.913856,
          38.749599
        ],
        [
          -85.912367,
          38.747468
        ],
        [
          -85.911139,
          38.747353
        ],
        [
          -85.909765,
          38.748199
        ],
        [
          -85.910028,
          38.749621
        ],
        [
          -85.912075,
          38.751437
        ],
        [
          -85.912543,
          38.752673
        ],
        [
          -85.911753,
          38.754343
        ],
        [
          -85.911694,
          38.756586
        ],
        [
          -85.909677,
          38.757112
        ],
        [
          -85.908449,
          38.756151
        ],
        [
          -85.908421,
          38.755098
        ],
        [
          -85.91,
          38.752855
        ],
        [
          -85.908919,
          38.751161
        ],
        [
          -85.907136,
          38.751321
        ],
        [
          -85.905937,
          38.752923
        ],
        [
          -85.903043,
          38.751824
        ],
        [
          -85.901552,
          38.753585
        ],
        [
          -85.900587,
          38.753814
        ],
        [
          -85.896173,
          38.749745
        ],
        [
          -85.898015,
          38.748974
        ],
        [
          -85.898396,
          38.747555
        ],
        [
          -85.897024,
          38.744968
        ],
        [
          -85.897171,
          38.74387
        ],
        [
          -85.900123,
          38.743276
        ],
        [
          -85.900442,
          38.742199
        ],
        [
          -85.898721,
          38.740529
        ],
        [
          -85.896471,
          38.74126
        ],
        [
          -85.894894,
          38.740069
        ],
        [
          -85.89527,
          38.738147
        ],
        [
          -85.893577,
          38.737847
        ],
        [
          -85.891886,
          38.736543
        ],
        [
          -85.893144,
          38.735011
        ],
        [
          -85.89449,
          38.731372
        ],
        [
          -85.893351,
          38.729746
        ],
        [
          -85.89116,
          38.729631
        ],
        [
          -85.889553,
          38.730546
        ],
        [
          -85.890194,
          38.7324
        ],
        [
          -85.889725,
          38.733933
        ],
        [
          -85.888334,
          38.734443
        ],
        [
          -85.885986,
          38.735013
        ],
        [
          -85.886011,
          38.733954
        ],
        [
          -85.887598,
          38.733063
        ],
        [
          -85.887674,
          38.731772
        ],
        [
          -85.886549,
          38.730492
        ],
        [
          -85.882982,
          38.731158
        ],
        [
          -85.882498,
          38.730009
        ],
        [
          -85.883738,
          38.72893
        ],
        [
          -85.883927,
          38.7273
        ],
        [
          -85.882368,
          38.725347
        ],
        [
          -85.879914,
          38.725414
        ],
        [
          -85.878773,
          38.726627
        ],
        [
          -85.880467,
          38.72807
        ],
        [
          -85.879209,
          38.729351
        ],
        [
          -85.876785,
          38.728411
        ],
        [
          -85.874323,
          38.728366
        ],
        [
          -85.872977,
          38.726307
        ],
        [
          -85.871925,
          38.725919
        ],
        [
          -85.869559,
          38.726171
        ],
        [
          -85.869123,
          38.727293
        ],
        [
          -85.87114,
          38.728094
        ],
        [
          -85.870879,
          38.729537
        ],
        [
          -85.868105,
          38.730591
        ],
        [
          -85.866498,
          38.729311
        ],
        [
          -85.864455,
          38.729862
        ],
        [
          -85.861098,
          38.731924
        ],
        [
          -85.858673,
          38.730026
        ],
        [
          -85.856366,
          38.731378
        ],
        [
          -85.854471,
          38.734882
        ],
        [
          -85.851434,
          38.736303
        ],
        [
          -85.848104,
          38.734817
        ],
        [
          -85.847227,
          38.735298
        ],
        [
          -85.848195,
          38.737908
        ],
        [
          -85.846063,
          38.738733
        ],
        [
          -85.843668,
          38.738688
        ],
        [
          -85.842325,
          38.739353
        ],
        [
          -85.841596,
          38.741139
        ],
        [
          -85.843059,
          38.742215
        ],
        [
          -85.843358,
          38.744764
        ],
        [
          -85.840671,
          38.747166
        ],
        [
          -85.839356,
          38.747051
        ],
        [
          -85.837283,
          38.74879
        ],
        [
          -85.83714,
          38.751294
        ],
        [
          -85.835914,
          38.75205
        ],
        [
          -85.834072,
          38.750858
        ],
        [
          -85.832348,
          38.751819
        ],
        [
          -85.83235,
          38.753946
        ],
        [
          -85.831152,
          38.755753
        ],
        [
          -85.830043,
          38.758612
        ],
        [
          -85.830366,
          38.762615
        ],
        [
          -85.829813,
          38.764231
        ],
        [
          -85.82787,
          38.766112
        ],
        [
          -85.825505,
          38.767263
        ],
        [
          -85.825159,
          38.769504
        ],
        [
          -85.822287,
          38.770574
        ],
        [
          -85.822352,
          38.772131
        ],
        [
          -85.820832,
          38.77387
        ],
        [
          -85.819429,
          38.776503
        ],
        [
          -85.817354,
          38.777876
        ],
        [
          -85.815016,
          38.777394
        ],
        [
          -85.813642,
          38.777691
        ],
        [
          -85.81189,
          38.779727
        ],
        [
          -85.810837,
          38.779429
        ],
        [
          -85.811102,
          38.777849
        ],
        [
          -85.809523,
          38.777665
        ],
        [
          -85.804905,
          38.77954
        ],
        [
          -85.805842,
          38.781622
        ],
        [
          -85.805609,
          38.783246
        ],
        [
          -85.806781,
          38.785832
        ],
        [
          -85.80725,
          38.789377
        ],
        [
          -85.805307,
          38.791996
        ],
        [
          -85.804633,
          38.795476
        ],
        [
          -85.802059,
          38.797787
        ],
        [
          -85.799807,
          38.801312
        ],
        [
          -85.800099,
          38.80296
        ],
        [
          -85.797671,
          38.804538
        ],
        [
          -85.795357,
          38.807508
        ],
        [
          -85.795233,
          38.812373
        ],
        [
          -85.795643,
          38.840097
        ],
        [
          -85.79618,
          38.891751
        ],
        [
          -85.796317,
          38.898207
        ],
        [
          -85.796541,
          38.920696
        ],
        [
          -85.796827,
          38.932812
        ],
        [
          -85.796994,
          38.952517
        ],
        [
          -85.796763,
          38.953841
        ],
        [
          -85.797178,
          38.961245
        ],
        [
          -85.797396,
          38.980985
        ],
        [
          -85.798007,
          39.014312
        ],
        [
          -85.798349,
          39.046901
        ],
        [
          -85.798804,
          39.068536
        ],
        [
          -85.799067,
          39.090786
        ],
        [
          -85.799501,
          39.11049
        ],
        [
          -85.799716,
          39.127476
        ],
        [
          -85.799834,
          39.128897
        ],
        [
          -85.762443,
          39.129259
        ],
        [
          -85.761758,
          39.129464
        ],
        [
          -85.743315,
          39.130308
        ],
        [
          -85.724294,
          39.130691
        ],
        [
          -85.697706,
          39.13075
        ],
        [
          -85.686783,
          39.130859
        ],
        [
          -85.686995,
          39.144424
        ],
        [
          -85.687296,
          39.190505
        ],
        [
          -85.687136,
          39.2031
        ],
        [
          -85.686976,
          39.237142
        ],
        [
          -85.686659,
          39.261416
        ],
        [
          -85.686693,
          39.269636
        ],
        [
          -85.685678,
          39.31294
        ],
        [
          -85.685342,
          39.319472
        ],
        [
          -85.684831,
          39.334256
        ],
        [
          -85.684515,
          39.350049
        ],
        [
          -85.668819,
          39.350129
        ],
        [
          -85.63063,
          39.350205
        ],
        [
          -85.630209,
          39.386965
        ],
        [
          -85.630244,
          39.399253
        ],
        [
          -85.630107,
          39.416111
        ],
        [
          -85.630277,
          39.426151
        ],
        [
          -85.630092,
          39.426379
        ],
        [
          -85.629938,
          39.438253
        ],
        [
          -85.62907,
          39.439033
        ],
        [
          -85.629327,
          39.45275
        ],
        [
          -85.628777,
          39.452866
        ],
        [
          -85.611058,
          39.453345
        ],
        [
          -85.587148,
          39.453378
        ],
        [
          -85.572809,
          39.453206
        ],
        [
          -85.572752,
          39.452342
        ],
        [
          -85.534955,
          39.452653
        ],
        [
          -85.529433,
          39.452498
        ],
        [
          -85.499969,
          39.45284
        ],
        [
          -85.485068,
          39.452796
        ],
        [
          -85.47857,
          39.452895
        ],
        [
          -85.460341,
          39.452745
        ],
        [
          -85.459784,
          39.453187
        ],
        [
          -85.441664,
          39.453249
        ],
        [
          -85.422565,
          39.453126
        ],
        [
          -85.404698,
          39.453137
        ],
        [
          -85.394592,
          39.452867
        ],
        [
          -85.385088,
          39.45308
        ],
        [
          -85.375185,
          39.453098
        ],
        [
          -85.362796,
          39.45299
        ],
        [
          -85.347751,
          39.453066
        ],
        [
          -85.326052,
          39.453077
        ],
        [
          -85.297575,
          39.453275
        ],
        [
          -85.297767,
          39.46035
        ],
        [
          -85.298124,
          39.483186
        ],
        [
          -85.298152,
          39.500046
        ],
        [
          -85.298623,
          39.520258
        ],
        [
          -85.298609,
          39.525473
        ],
        [
          -85.29811,
          39.525476
        ],
        [
          -85.298375,
          39.555438
        ],
        [
          -85.298577,
          39.568893
        ],
        [
          -85.299275,
          39.598686
        ],
        [
          -85.299654,
          39.612454
        ],
        [
          -85.299993,
          39.613012
        ],
        [
          -85.300089,
          39.623193
        ],
        [
          -85.300331,
          39.637223
        ],
        [
          -85.300335,
          39.645939
        ],
        [
          -85.300962,
          39.681978
        ],
        [
          -85.301213,
          39.699963
        ],
        [
          -85.300918,
          39.700748
        ],
        [
          -85.301326,
          39.744178
        ],
        [
          -85.301453,
          39.770032
        ],
        [
          -85.301584,
          39.787579
        ],
        [
          -85.268047,
          39.788037
        ],
        [
          -85.232691,
          39.788371
        ],
        [
          -85.221118,
          39.788449
        ],
        [
          -85.221017,
          39.811049
        ],
        [
          -85.221136,
          39.81185
        ],
        [
          -85.221117,
          39.829751
        ],
        [
          -85.220942,
          39.843634
        ],
        [
          -85.220728,
          39.873576
        ],
        [
          -85.211779,
          39.87362
        ],
        [
          -85.200945,
          39.873799
        ],
        [
          -85.200668,
          39.910399
        ],
        [
          -85.200501,
          39.917947
        ],
        [
          -85.200569,
          39.924469
        ],
        [
          -85.200483,
          39.938427
        ],
        [
          -85.200598,
          39.942653
        ],
        [
          -85.20031,
          39.960705
        ],
        [
          -85.200804,
          39.960705
        ],
        [
          -85.201469,
          40.000046
        ],
        [
          -85.201473,
          40.004521
        ],
        [
          -85.213496,
          40.00438
        ],
        [
          -85.213662,
          40.043232
        ],
        [
          -85.213935,
          40.062284
        ],
        [
          -85.214386,
          40.076889
        ],
        [
          -85.214902,
          40.106067
        ],
        [
          -85.215223,
          40.116745
        ],
        [
          -85.215339,
          40.125047
        ],
        [
          -85.215619,
          40.135767
        ],
        [
          -85.215909,
          40.15408
        ],
        [
          -85.216032,
          40.156701
        ],
        [
          -85.215909,
          40.163212
        ],
        [
          -85.21639,
          40.178406
        ],
        [
          -85.216493,
          40.193096
        ],
        [
          -85.216937,
          40.207752
        ],
        [
          -85.217221,
          40.220435
        ],
        [
          -85.217237,
          40.229644
        ],
        [
          -85.217735,
          40.242246
        ],
        [
          -85.218135,
          40.261398
        ],
        [
          -85.218219,
          40.274009
        ],
        [
          -85.218639,
          40.290628
        ],
        [
          -85.218479,
          40.29096
        ],
        [
          -85.218758,
          40.306706
        ],
        [
          -85.219275,
          40.335706
        ],
        [
          -85.219719,
          40.350812
        ],
        [
          -85.219726,
          40.360872
        ],
        [
          -85.219968,
          40.374415
        ],
        [
          -85.219901,
          40.379034
        ],
        [
          -85.218551,
          40.379218
        ],
        [
          -85.206831,
          40.379182
        ],
        [
          -85.206889,
          40.391427
        ],
        [
          -85.206586,
          40.393436
        ],
        [
          -85.206625,
          40.428829
        ],
        [
          -85.206689,
          40.440823
        ],
        [
          -85.206508,
          40.479373
        ],
        [
          -85.200827,
          40.479547
        ],
        [
          -85.200618,
          40.494378
        ],
        [
          -85.20074,
          40.505507
        ],
        [
          -85.201067,
          40.519919
        ],
        [
          -85.201396,
          40.521325
        ],
        [
          -85.201184,
          40.525023
        ],
        [
          -85.201297,
          40.53163
        ],
        [
          -85.201313,
          40.552128
        ],
        [
          -85.201146,
          40.567242
        ],
        [
          -85.220999,
          40.567251
        ],
        [
          -85.228116,
          40.567186
        ],
        [
          -85.240081,
          40.567231
        ],
        [
          -85.259125,
          40.567146
        ],
        [
          -85.283757,
          40.567252
        ],
        [
          -85.316262,
          40.567329
        ],
        [
          -85.333667,
          40.567327
        ],
        [
          -85.371511,
          40.567107
        ],
        [
          -85.390539,
          40.566898
        ],
        [
          -85.410222,
          40.566832
        ],
        [
          -85.447014,
          40.566929
        ],
        [
          -85.447407,
          40.589741
        ],
        [
          -85.447453,
          40.596196
        ],
        [
          -85.448027,
          40.615279
        ],
        [
          -85.448127,
          40.624733
        ],
        [
          -85.448993,
          40.651271
        ],
        [
          -85.448825,
          40.653607
        ],
        [
          -85.46355,
          40.653667
        ],
        [
          -85.498373,
          40.653423
        ],
        [
          -85.504757,
          40.653322
        ],
        [
          -85.515958,
          40.653365
        ],
        [
          -85.525488,
          40.653292
        ],
        [
          -85.54454,
          40.653332
        ],
        [
          -85.562294,
          40.653193
        ],
        [
          -85.571832,
          40.653279
        ],
        [
          -85.59236,
          40.653308
        ],
        [
          -85.638587,
          40.653129
        ],
        [
          -85.668961,
          40.652877
        ],
        [
          -85.701272,
          40.652652
        ],
        [
          -85.714161,
          40.652696
        ],
        [
          -85.726531,
          40.652569
        ],
        [
          -85.737259,
          40.652568
        ],
        [
          -85.753922,
          40.652382
        ],
        [
          -85.758173,
          40.652016
        ],
        [
          -85.760169,
          40.652377
        ],
        [
          -85.771891,
          40.652294
        ],
        [
          -85.776321,
          40.6524
        ],
        [
          -85.795826,
          40.652147
        ],
        [
          -85.836318,
          40.651925
        ],
        [
          -85.838927,
          40.651718
        ],
        [
          -85.855661,
          40.651337
        ],
        [
          -85.86214,
          40.651723
        ],
        [
          -85.864791,
          40.651693
        ],
        [
          -85.874955,
          40.651503
        ],
        [
          -85.893207,
          40.651375
        ],
        [
          -85.901427,
          40.65125
        ],
        [
          -85.939525,
          40.650991
        ],
        [
          -85.940066,
          40.686384
        ],
        [
          -85.940375,
          40.6946
        ],
        [
          -85.941094,
          40.737269
        ],
        [
          -85.941024,
          40.748867
        ],
        [
          -85.941476,
          40.769562
        ],
        [
          -85.941302,
          40.78187
        ],
        [
          -85.941535,
          40.794406
        ],
        [
          -85.941967,
          40.808927
        ],
        [
          -85.942826,
          40.854035
        ],
        [
          -85.943628,
          40.890183
        ],
        [
          -85.944049,
          40.91281
        ],
        [
          -85.944081,
          40.920882
        ],
        [
          -85.944987,
          40.951955
        ],
        [
          -85.945393,
          40.963556
        ],
        [
          -85.946436,
          40.999195
        ],
        [
          -85.945402,
          40.999256
        ],
        [
          -85.94538,
          41.004685
        ],
        [
          -85.945636,
          41.013779
        ],
        [
          -85.945561,
          41.042876
        ],
        [
          -85.954851,
          41.042856
        ],
        [
          -85.980866,
          41.042218
        ],
        [
          -85.99082,
          41.042112
        ],
        [
          -86.003027,
          41.042502
        ],
        [
          -86.005968,
          41.04222
        ],
        [
          -86.012609,
          41.042206
        ],
        [
          -86.018664,
          41.041878
        ],
        [
          -86.018495,
          41.065074
        ],
        [
          -86.018414,
          41.086118
        ],
        [
          -86.028329,
          41.085917
        ],
        [
          -86.059942,
          41.085166
        ],
        [
          -86.075939,
          41.084878
        ],
        [
          -86.076342,
          41.11608
        ],
        [
          -86.076903,
          41.145757
        ],
        [
          -86.077407,
          41.165001
        ],
        [
          -86.077551,
          41.172868
        ],
        [
          -86.097705,
          41.172737
        ],
        [
          -86.121962,
          41.172492
        ],
        [
          -86.146046,
          41.172307
        ],
        [
          -86.162156,
          41.172235
        ],
        [
          -86.177391,
          41.172245
        ],
        [
          -86.208923,
          41.172356
        ],
        [
          -86.218872,
          41.172347
        ],
        [
          -86.225844,
          41.171757
        ],
        [
          -86.236866,
          41.171849
        ],
        [
          -86.241191,
          41.172355
        ],
        [
          -86.263427,
          41.172374
        ],
        [
          -86.296754,
          41.172315
        ],
        [
          -86.317757,
          41.172226
        ],
        [
          -86.349146,
          41.172027
        ],
        [
          -86.384572,
          41.171895
        ],
        [
          -86.405722,
          41.171735
        ],
        [
          -86.420657,
          41.171697
        ],
        [
          -86.43472,
          41.171585
        ],
        [
          -86.467046,
          41.171442
        ],
        [
          -86.505192,
          41.171673
        ],
        [
          -86.508294,
          41.171741
        ],
        [
          -86.5472,
          41.171945
        ],
        [
          -86.548578,
          41.171868
        ],
        [
          -86.58285,
          41.171962
        ],
        [
          -86.621153,
          41.172005
        ],
        [
          -86.640524,
          41.172101
        ],
        [
          -86.664667,
          41.172053
        ],
        [
          -86.689089,
          41.172142
        ],
        [
          -86.708087,
          41.172102
        ],
        [
          -86.721247,
          41.17199
        ],
        [
          -86.737298,
          41.172113
        ],
        [
          -86.756594,
          41.172083
        ],
        [
          -86.783161,
          41.171331
        ],
        [
          -86.798376,
          41.171425
        ],
        [
          -86.798718,
          41.171554
        ],
        [
          -86.814389,
          41.171993
        ],
        [
          -86.829101,
          41.171974
        ],
        [
          -86.850718,
          41.172115
        ],
        [
          -86.868085,
          41.172118
        ],
        [
          -86.921108,
          41.172255
        ],
        [
          -86.93017,
          41.172318
        ],
        [
          -86.929865,
          41.211326
        ],
        [
          -86.929646,
          41.229711
        ],
        [
          -86.930079,
          41.236798
        ],
        [
          -86.936299,
          41.231279
        ],
        [
          -86.938891,
          41.22962
        ],
        [
          -86.942336,
          41.228502
        ],
        [
          -86.949079,
          41.22663
        ],
        [
          -86.954522,
          41.225282
        ],
        [
          -86.962028,
          41.222554
        ],
        [
          -86.968125,
          41.219658
        ],
        [
          -86.977017,
          41.221549
        ],
        [
          -86.978004,
          41.222155
        ],
        [
          -86.984358,
          41.227918
        ],
        [
          -86.998548,
          41.23477
        ],
        [
          -87.011028,
          41.240908
        ],
        [
          -87.023787,
          41.248452
        ],
        [
          -87.044084,
          41.260361
        ],
        [
          -87.052047,
          41.264942
        ],
        [
          -87.059724,
          41.26952
        ],
        [
          -87.073099,
          41.273159
        ],
        [
          -87.090375,
          41.277752
        ],
        [
          -87.120118,
          41.285737
        ],
        [
          -87.122124,
          41.286365
        ],
        [
          -87.131653,
          41.286155
        ],
        [
          -87.167317,
          41.273596
        ],
        [
          -87.184248,
          41.267864
        ],
        [
          -87.192361,
          41.265289
        ],
        [
          -87.194068,
          41.263917
        ],
        [
          -87.210468,
          41.249335
        ],
        [
          -87.218862,
          41.242027
        ],
        [
          -87.226463,
          41.235485
        ],
        [
          -87.250155,
          41.227474
        ],
        [
          -87.256479,
          41.225234
        ],
        [
          -87.275882,
          41.218595
        ],
        [
          -87.285611,
          41.215264
        ],
        [
          -87.294931,
          41.208421
        ],
        [
          -87.298485,
          41.205415
        ],
        [
          -87.324599,
          41.186203
        ],
        [
          -87.33146,
          41.182988
        ],
        [
          -87.335808,
          41.182715
        ],
        [
          -87.346584,
          41.182296
        ],
        [
          -87.363887,
          41.176765
        ],
        [
          -87.369771,
          41.175486
        ],
        [
          -87.380709,
          41.172652
        ],
        [
          -87.393657,
          41.16283
        ],
        [
          -87.410404,
          41.162292
        ],
        [
          -87.414421,
          41.162248
        ],
        [
          -87.421124,
          41.165473
        ],
        [
          -87.429448,
          41.168282
        ],
        [
          -87.442293,
          41.17341
        ],
        [
          -87.445387,
          41.17427
        ],
        [
          -87.447842,
          41.174312
        ],
        [
          -87.45799,
          41.170591
        ],
        [
          -87.464129,
          41.17051
        ],
        [
          -87.484775,
          41.169886
        ],
        [
          -87.526587,
          41.16609
        ],
        [
          -87.52666,
          41.155055
        ],
        [
          -87.526471,
          41.152456
        ],
        [
          -87.526696,
          41.149222
        ],
        [
          -87.52661,
          41.121453
        ],
        [
          -87.526675,
          41.116711
        ],
        [
          -87.526565,
          41.100922
        ],
        [
          -87.526578,
          41.088529
        ],
        [
          -87.526496,
          41.061452
        ],
        [
          -87.526323,
          41.045441
        ],
        [
          -87.526421,
          41.03786
        ],
        [
          -87.526428,
          41.024366
        ],
        [
          -87.526206,
          41.010467
        ],
        [
          -87.526291,
          41.001545
        ],
        [
          -87.526111,
          40.977355
        ],
        [
          -87.525993,
          40.975045
        ],
        [
          -87.526005,
          40.951486
        ],
        [
          -87.526123,
          40.937594
        ],
        [
          -87.525996,
          40.911838
        ],
        [
          -87.525968,
          40.894366
        ],
        [
          -87.526436,
          40.894154
        ],
        [
          -87.525915,
          40.880595
        ],
        [
          -87.526113,
          40.879703
        ],
        [
          -87.525924,
          40.875035
        ],
        [
          -87.525975,
          40.865017
        ],
        [
          -87.525896,
          40.854159
        ],
        [
          -87.525742,
          40.849804
        ],
        [
          -87.525661,
          40.836132
        ],
        [
          -87.525696,
          40.81725
        ],
        [
          -87.525898,
          40.80311
        ],
        [
          -87.525863,
          40.783512
        ],
        [
          -87.525994,
          40.775832
        ],
        [
          -87.526031,
          40.736885
        ],
        [
          -87.526193,
          40.719262
        ],
        [
          -87.526178,
          40.70618
        ],
        [
          -87.526304,
          40.678671
        ],
        [
          -87.526193,
          40.665437
        ],
        [
          -87.526242,
          40.652357
        ],
        [
          -87.526088,
          40.628719
        ],
        [
          -87.526003,
          40.606903
        ],
        [
          -87.526089,
          40.600954
        ],
        [
          -87.526169,
          40.582119
        ],
        [
          -87.526276,
          40.57088
        ],
        [
          -87.526375,
          40.521461
        ],
        [
          -87.526168,
          40.505761
        ],
        [
          -87.526589,
          40.476876
        ],
        [
          -87.526761,
          40.462774
        ],
        [
          -87.527313,
          40.4327
        ],
        [
          -87.527549,
          40.408812
        ],
        [
          -87.52792,
          40.396061
        ],
        [
          -87.528172,
          40.375036
        ],
        [
          -87.528107,
          40.370789
        ],
        [
          -87.528619,
          40.339998
        ],
        [
          -87.528821,
          40.330775
        ],
        [
          -87.529099,
          40.311098
        ],
        [
          -87.529631,
          40.282001
        ],
        [
          -87.529706,
          40.269719
        ],
        [
          -87.53011,
          40.24389
        ],
        [
          -87.530372,
          40.231835
        ],
        [
          -87.530417,
          40.22109
        ],
        [
          -87.530791,
          40.19183
        ],
        [
          -87.531449,
          40.148127
        ],
        [
          -87.531759,
          40.144273
        ],
        [
          -87.53153,
          40.142775
        ],
        [
          -87.53214,
          40.066403
        ],
        [
          -87.532399,
          40.01517
        ],
        [
          -87.53225,
          39.99971
        ],
        [
          -87.5325,
          39.97821
        ],
        [
          -87.532773,
          39.969569
        ],
        [
          -87.532741,
          39.937036
        ],
        [
          -87.532946,
          39.919424
        ],
        [
          -87.533197,
          39.888797
        ],
        [
          -87.533269,
          39.875036
        ],
        [
          -87.533125,
          39.832597
        ],
        [
          -87.53314,
          39.812541
        ],
        [
          -87.533238,
          39.80402
        ],
        [
          -87.533055,
          39.803812
        ],
        [
          -87.533203,
          39.796256
        ],
        [
          -87.533178,
          39.782445
        ],
        [
          -87.53304,
          39.774285
        ],
        [
          -87.532969,
          39.745302
        ],
        [
          -87.532707,
          39.666203
        ],
        [
          -87.532488,
          39.660981
        ],
        [
          -87.532216,
          39.625044
        ],
        [
          -87.532194,
          39.607306
        ],
        [
          -87.532025,
          39.568354
        ],
        [
          -87.531874,
          39.563984
        ],
        [
          -87.531811,
          39.534969
        ],
        [
          -87.531954,
          39.52454
        ],
        [
          -87.531608,
          39.466223
        ],
        [
          -87.531415,
          39.438558
        ],
        [
          -87.531355,
          39.437732
        ],
        [
          -87.531356,
          39.419006
        ],
        [
          -87.531423,
          39.375037
        ],
        [
          -87.531691,
          39.371042
        ],
        [
          -87.531646,
          39.347888
        ],
        [
          -87.532424,
          39.347927
        ],
        [
          -87.537271,
          39.352089
        ],
        [
          -87.538693,
          39.352636
        ],
        [
          -87.542237,
          39.353096
        ],
        [
          -87.545882,
          39.352147
        ],
        [
          -87.548157,
          39.34988
        ],
        [
          -87.549478,
          39.34774
        ],
        [
          -87.55026,
          39.343348
        ],
        [
          -87.55214,
          39.34148
        ],
        [
          -87.557744,
          39.339335
        ],
        [
          -87.560692,
          39.338851
        ],
        [
          -87.562465,
          39.33893
        ],
        [
          -87.566134,
          39.339726
        ],
        [
          -87.570705,
          39.341267
        ],
        [
          -87.57408,
          39.341423
        ],
        [
          -87.578331,
          39.340343
        ],
        [
          -87.584852,
          39.337329
        ],
        [
          -87.589084,
          39.333831
        ],
        [
          -87.591801,
          39.330324
        ],
        [
          -87.596729,
          39.322029
        ],
        [
          -87.600656,
          39.318529
        ],
        [
          -87.604043,
          39.313526
        ],
        [
          -87.60592,
          39.311076
        ],
        [
          -87.608528,
          39.309816
        ],
        [
          -87.612606,
          39.308566
        ],
        [
          -87.616675,
          39.308188
        ],
        [
          -87.620178,
          39.307395
        ],
        [
          -87.621147,
          39.305306
        ],
        [
          -87.620526,
          39.302835
        ],
        [
          -87.618964,
          39.301691
        ],
        [
          -87.615841,
          39.300869
        ],
        [
          -87.614015,
          39.300938
        ],
        [
          -87.608419,
          39.302703
        ],
        [
          -87.605348,
          39.303217
        ],
        [
          -87.599835,
          39.300934
        ],
        [
          -87.597946,
          39.299479
        ],
        [
          -87.597323,
          39.296957
        ],
        [
          -87.599907,
          39.293583
        ],
        [
          -87.608753,
          39.286689
        ],
        [
          -87.609767,
          39.284714
        ],
        [
          -87.61005,
          39.282232
        ],
        [
          -87.609438,
          39.278535
        ],
        [
          -87.608543,
          39.277187
        ],
        [
          -87.606394,
          39.275898
        ],
        [
          -87.601948,
          39.275165
        ],
        [
          -87.601271,
          39.273583
        ],
        [
          -87.601501,
          39.272242
        ],
        [
          -87.605262,
          39.263403
        ],
        [
          -87.605543,
          39.261122
        ],
        [
          -87.604141,
          39.259458
        ],
        [
          -87.598135,
          39.254093
        ],
        [
          -87.594684,
          39.248742
        ],
        [
          -87.592394,
          39.247146
        ],
        [
          -87.590315,
          39.247566
        ],
        [
          -87.587507,
          39.249282
        ],
        [
          -87.58518,
          39.253138
        ],
        [
          -87.584177,
          39.254004
        ],
        [
          -87.580652,
          39.255237
        ],
        [
          -87.576836,
          39.255458
        ],
        [
          -87.574791,
          39.255129
        ],
        [
          -87.57238,
          39.253669
        ],
        [
          -87.571586,
          39.252287
        ],
        [
          -87.571467,
          39.249322
        ],
        [
          -87.572088,
          39.247825
        ],
        [
          -87.574352,
          39.245853
        ],
        [
          -87.578224,
          39.244794
        ],
        [
          -87.579319,
          39.243552
        ],
        [
          -87.577609,
          39.239184
        ],
        [
          -87.575373,
          39.228355
        ],
        [
          -87.574615,
          39.223931
        ],
        [
          -87.574558,
          39.218404
        ],
        [
          -87.575601,
          39.213837
        ],
        [
          -87.577029,
          39.211123
        ],
        [
          -87.580332,
          39.20841
        ],
        [
          -87.584977,
          39.205276
        ],
        [
          -87.585736,
          39.203866
        ],
        [
          -87.585725,
          39.200396
        ],
        [
          -87.588614,
          39.197824
        ],
        [
          -87.594151,
          39.194932
        ],
        [
          -87.600099,
          39.193441
        ],
        [
          -87.603045,
          39.191304
        ],
        [
          -87.605173,
          39.185897
        ],
        [
          -87.607879,
          39.184463
        ],
        [
          -87.609976,
          39.184043
        ],
        [
          -87.613064,
          39.18418
        ],
        [
          -87.616307,
          39.185849
        ],
        [
          -87.618551,
          39.186404
        ],
        [
          -87.619603,
          39.186032
        ],
        [
          -87.62114,
          39.183898
        ],
        [
          -87.621397,
          39.178868
        ],
        [
          -87.620796,
          39.17479
        ],
        [
          -87.619774,
          39.173418
        ],
        [
          -87.619618,
          39.170975
        ],
        [
          -87.620521,
          39.17033
        ],
        [
          -87.623607,
          39.16949
        ],
        [
          -87.629623,
          39.168892
        ],
        [
          -87.634792,
          39.168993
        ],
        [
          -87.637934,
          39.168428
        ],
        [
          -87.640434,
          39.166727
        ],
        [
          -87.641285,
          39.16526
        ],
        [
          -87.642063,
          39.161332
        ],
        [
          -87.640856,
          39.159867
        ],
        [
          -87.638324,
          39.159139
        ],
        [
          -87.631756,
          39.158604
        ],
        [
          -87.629377,
          39.158023
        ],
        [
          -87.627509,
          39.15538
        ],
        [
          -87.629713,
          39.153394
        ],
        [
          -87.631571,
          39.152986
        ],
        [
          -87.634379,
          39.153419
        ],
        [
          -87.637443,
          39.156773
        ],
        [
          -87.639019,
          39.157152
        ],
        [
          -87.642175,
          39.157097
        ],
        [
          -87.644216,
          39.154858
        ],
        [
          -87.64638,
          39.153428
        ],
        [
          -87.651719,
          39.150602
        ],
        [
          -87.653311,
          39.148028
        ],
        [
          -87.653201,
          39.143993
        ],
        [
          -87.65408,
          39.142687
        ],
        [
          -87.658201,
          39.138404
        ],
        [
          -87.658745,
          39.135997
        ]
      ]
    ]
  }
}